ONEWEB-0603             
1 54667U 22166AB  23356.55565312 -.00000016  00000+0 -69860-4 0  9997
2 54667  87.9251  64.6573 0001433  87.9190 272.2108 13.21824903 51571
ONEWEB-0604             
1 54668U 22166AC  23356.24026013  .00001763  00000+0  42360-2 0  9996
2 54668  87.9255  64.7129 0001354 132.7071 227.4178 13.21816971 51499
ONEWEB-0605             
1 54669U 22166AD  23356.61242983  .00000039  00000+0  62271-4 0  9994
2 54669  87.9259  64.6718 0001696  80.7907 279.3419 13.21825540 51616
ONEWEB-0606             
1 54670U 22166AE  23356.55880245  .00000183  00000+0  41063-3 0  9993
2 54670  87.9248  64.6637 0002135 111.0384 249.0978 13.21827334 51664
ONEWEB-0607             
1 54671U 22166AF  23356.60137940  .00000032  00000+0  46163-4 0  9997
2 54671  87.9241  64.6394 0001540  95.8507 264.2803 13.21822732 51644
ONEWEB-0608             
1 54672U 22166AG  23356.22920909  .00000086  00000+0  17775-3 0  9996
2 54672  87.9249  64.7240 0001544  75.7406 284.3899 13.21827173 51601
ONEWEB-0610             
1 54673U 22166AH  23356.58875819  .00000017  00000+0  10729-4 0  9992
2 54673  87.9250  64.6532 0001644  91.7105 268.4217 13.21826267 51556
ONEWEB-0611             
1 54674U 22166AJ  23356.58245340 -.00000013  00000+0 -63016-4 0  9998
2 54674  87.9250  64.6555 0001950 115.0654 245.0682 13.21825457 51547
